KUIPER-00104            
1 65142U 25171L   25295.16667823 -.00224094  00000+0 -75494-2 0  9999
2 65142  51.8793  59.1008 0005288  17.9557  10.6867 15.31129970  5251
KUIPER-00105            
1 65143U 25171M   25295.16667823 -.00845769  00000+0 -52556-1 0  9991
2 65143  51.8839  61.1314 0009952   0.9586  27.2046 15.11718366  5504
KUIPER-00106            
1 65144U 25171N   25295.16667823 -.00958548  00000+0 -83659-1 0  9990
2 65144  51.9026  63.8873 0008482 359.2998  76.7615 14.99086175  5004
KUIPER-00107            
1 65145U 25171P   25295.07375830  .00056413  00000+0  14968-2 0  9991
2 65145  51.8756  59.2590 0005215  27.1416 332.9843 15.37744815 12256
KUIPER-00108            
1 65146U 25171Q   25295.16667823 -.00678486  00000+0 -27899-1 0  9996
2 65146  51.8830  59.4980 0006799  36.4561 141.5849 15.26188720  3847
KUIPER-00109            
1 65147U 25171R   25295.16667823 -.00390585  00000+0 -11801-1 0  9994
2 65147  51.8773  58.7226 0007569  12.2860 187.7949 15.35253976  5211
KUIPER-00110            
1 65148U 25171S   25295.16667823 -.00931536  00000+0 -70220-1 0  9992
2 65148  51.9018  62.4180 0009902   6.6943  92.8116 15.04958819  5416
KUIPER-00111            
1 65149U 25171T   25295.16667823 -.00015608  00000+0 -16762-2 0  9998
2 65149  51.8973  65.8070 0009402  27.3646 285.9621 14.87614265  5775
