<?xml version="1.0" encoding="UTF-8"?>
<ndm xmlns:xsi="http://www.w3.org/2001/XMLSchema-instance" xsi:noNamespaceSchemaLocation="https://sanaregistry.org/r/ndmxml_unqualified/ndmxml-2.0.0-master-2.0.xsd">
<omm id="CCSDS_OMM_VERS" version="2.0">
<header><CREATION_DATE/><ORIGINATOR/></header><body><segment><metadata><OBJECT_NAME>KUIPER-00104</OBJECT_NAME><OBJECT_ID>2025-171L</OBJECT_ID><CENTER_NAME>EARTH</CENTER_NAME><REF_FRAME>TEME</REF_FRAME><TIME_SYSTEM>UTC</TIME_SYSTEM><MEAN_ELEMENT_THEORY>SGP4</MEAN_ELEMENT_THEORY></metadata><data><meanElements><EPOCH>2025-10-22T04:00:00.999072</EPOCH><MEAN_MOTION>15.31129970</MEAN_MOTION><ECCENTRICITY>.0005288</ECCENTRICITY><INCLINATION>51.8793</INCLINATION><RA_OF_ASC_NODE>59.1008</RA_OF_ASC_NODE><ARG_OF_PERICENTER>17.9557</ARG_OF_PERICENTER><MEAN_ANOMALY>10.6867</MEAN_ANOMALY></meanElements><tleParameters><EPHEMERIS_TYPE>0</EPHEMERIS_TYPE><CLASSIFICATION_TYPE>U</CLASSIFICATION_TYPE><NORAD_CAT_ID>65142</NORAD_CAT_ID><ELEMENT_SET_NO>999</ELEMENT_SET_NO><REV_AT_EPOCH>525</REV_AT_EPOCH><BSTAR>-.75494E-2</BSTAR><MEAN_MOTION_DOT>-.224094E-2</MEAN_MOTION_DOT><MEAN_MOTION_DDOT>0</MEAN_MOTION_DDOT></tleParameters></data></segment></body></omm>
<omm id="CCSDS_OMM_VERS" version="2.0">
<header><CREATION_DATE/><ORIGINATOR/></header><body><segment><metadata><OBJECT_NAME>KUIPER-00105</OBJECT_NAME><OBJECT_ID>2025-171M</OBJECT_ID><CENTER_NAME>EARTH</CENTER_NAME><REF_FRAME>TEME</REF_FRAME><TIME_SYSTEM>UTC</TIME_SYSTEM><MEAN_ELEMENT_THEORY>SGP4</MEAN_ELEMENT_THEORY></metadata><data><meanElements><EPOCH>2025-10-22T04:00:00.999072</EPOCH><MEAN_MOTION>15.11718366</MEAN_MOTION><ECCENTRICITY>.0009952</ECCENTRICITY><INCLINATION>51.8839</INCLINATION><RA_OF_ASC_NODE>61.1314</RA_OF_ASC_NODE><ARG_OF_PERICENTER>0.9586</ARG_OF_PERICENTER><MEAN_ANOMALY>27.2046</MEAN_ANOMALY></meanElements><tleParameters><EPHEMERIS_TYPE>0</EPHEMERIS_TYPE><CLASSIFICATION_TYPE>U</CLASSIFICATION_TYPE><NORAD_CAT_ID>65143</NORAD_CAT_ID><ELEMENT_SET_NO>999</ELEMENT_SET_NO><REV_AT_EPOCH>550</REV_AT_EPOCH><BSTAR>-.52556E-1</BSTAR><MEAN_MOTION_DOT>-.845769E-2</MEAN_MOTION_DOT><MEAN_MOTION_DDOT>0</MEAN_MOTION_DDOT></tleParameters></data></segment></body></omm>
<omm id="CCSDS_OMM_VERS" version="2.0">
<header><CREATION_DATE/><ORIGINATOR/></header><body><segment><metadata><OBJECT_NAME>KUIPER-00106</OBJECT_NAME><OBJECT_ID>2025-171N</OBJECT_ID><CENTER_NAME>EARTH</CENTER_NAME><REF_FRAME>TEME</REF_FRAME><TIME_SYSTEM>UTC</TIME_SYSTEM><MEAN_ELEMENT_THEORY>SGP4</MEAN_ELEMENT_THEORY></metadata><data><meanElements><EPOCH>2025-10-22T04:00:00.999072</EPOCH><MEAN_MOTION>14.99086175</MEAN_MOTION><ECCENTRICITY>.0008482</ECCENTRICITY><INCLINATION>51.9026</INCLINATION><RA_OF_ASC_NODE>63.8873</RA_OF_ASC_NODE><ARG_OF_PERICENTER>359.2998</ARG_OF_PERICENTER><MEAN_ANOMALY>76.7615</MEAN_ANOMALY></meanElements><tleParameters><EPHEMERIS_TYPE>0</EPHEMERIS_TYPE><CLASSIFICATION_TYPE>U</CLASSIFICATION_TYPE><NORAD_CAT_ID>65144</NORAD_CAT_ID><ELEMENT_SET_NO>999</ELEMENT_SET_NO><REV_AT_EPOCH>500</REV_AT_EPOCH><BSTAR>-.83659E-1</BSTAR><MEAN_MOTION_DOT>-.958548E-2</MEAN_MOTION_DOT><MEAN_MOTION_DDOT>0</MEAN_MOTION_DDOT></tleParameters></data></segment></body></omm>
<omm id="CCSDS_OMM_VERS" version="2.0">
<header><CREATION_DATE/><ORIGINATOR/></header><body><segment><metadata><OBJECT_NAME>KUIPER-00107</OBJECT_NAME><OBJECT_ID>2025-171P</OBJECT_ID><CENTER_NAME>EARTH</CENTER_NAME><REF_FRAME>TEME</REF_FRAME><TIME_SYSTEM>UTC</TIME_SYSTEM><MEAN_ELEMENT_THEORY>SGP4</MEAN_ELEMENT_THEORY></metadata><data><meanElements><EPOCH>2025-10-22T01:46:12.717120</EPOCH><MEAN_MOTION>15.37744815</MEAN_MOTION><ECCENTRICITY>.0005215</ECCENTRICITY><INCLINATION>51.8756</INCLINATION><RA_OF_ASC_NODE>59.2590</RA_OF_ASC_NODE><ARG_OF_PERICENTER>27.1416</ARG_OF_PERICENTER><MEAN_ANOMALY>332.9843</MEAN_ANOMALY></meanElements><tleParameters><EPHEMERIS_TYPE>0</EPHEMERIS_TYPE><CLASSIFICATION_TYPE>U</CLASSIFICATION_TYPE><NORAD_CAT_ID>65145</NORAD_CAT_ID><ELEMENT_SET_NO>999</ELEMENT_SET_NO><REV_AT_EPOCH>1225</REV_AT_EPOCH><BSTAR>.14968E-2</BSTAR><MEAN_MOTION_DOT>.56413E-3</MEAN_MOTION_DOT><MEAN_MOTION_DDOT>0</MEAN_MOTION_DDOT></tleParameters></data></segment></body></omm>
<omm id="CCSDS_OMM_VERS" version="2.0">
<header><CREATION_DATE/><ORIGINATOR/></header><body><segment><metadata><OBJECT_NAME>KUIPER-00108</OBJECT_NAME><OBJECT_ID>2025-171Q</OBJECT_ID><CENTER_NAME>EARTH</CENTER_NAME><REF_FRAME>TEME</REF_FRAME><TIME_SYSTEM>UTC</TIME_SYSTEM><MEAN_ELEMENT_THEORY>SGP4</MEAN_ELEMENT_THEORY></metadata><data><meanElements><EPOCH>2025-10-22T04:00:00.999072</EPOCH><MEAN_MOTION>15.26188720</MEAN_MOTION><ECCENTRICITY>.0006799</ECCENTRICITY><INCLINATION>51.8830</INCLINATION><RA_OF_ASC_NODE>59.4980</RA_OF_ASC_NODE><ARG_OF_PERICENTER>36.4561</ARG_OF_PERICENTER><MEAN_ANOMALY>141.5849</MEAN_ANOMALY></meanElements><tleParameters><EPHEMERIS_TYPE>0</EPHEMERIS_TYPE><CLASSIFICATION_TYPE>U</CLASSIFICATION_TYPE><NORAD_CAT_ID>65146</NORAD_CAT_ID><ELEMENT_SET_NO>999</ELEMENT_SET_NO><REV_AT_EPOCH>384</REV_AT_EPOCH><BSTAR>-.27899E-1</BSTAR><MEAN_MOTION_DOT>-.678486E-2</MEAN_MOTION_DOT><MEAN_MOTION_DDOT>0</MEAN_MOTION_DDOT></tleParameters></data></segment></body></omm>
<omm id="CCSDS_OMM_VERS" version="2.0">
<header><CREATION_DATE/><ORIGINATOR/></header><body><segment><metadata><OBJECT_NAME>KUIPER-00109</OBJECT_NAME><OBJECT_ID>2025-171R</OBJECT_ID><CENTER_NAME>EARTH</CENTER_NAME><REF_FRAME>TEME</REF_FRAME><TIME_SYSTEM>UTC</TIME_SYSTEM><MEAN_ELEMENT_THEORY>SGP4</MEAN_ELEMENT_THEORY></metadata><data><meanElements><EPOCH>2025-10-22T04:00:00.999072</EPOCH><MEAN_MOTION>15.35253976</MEAN_MOTION><ECCENTRICITY>.0007569</ECCENTRICITY><INCLINATION>51.8773</INCLINATION><RA_OF_ASC_NODE>58.7226</RA_OF_ASC_NODE><ARG_OF_PERICENTER>12.2860</ARG_OF_PERICENTER><MEAN_ANOMALY>187.7949</MEAN_ANOMALY></meanElements><tleParameters><EPHEMERIS_TYPE>0</EPHEMERIS_TYPE><CLASSIFICATION_TYPE>U</CLASSIFICATION_TYPE><NORAD_CAT_ID>65147</NORAD_CAT_ID><ELEMENT_SET_NO>999</ELEMENT_SET_NO><REV_AT_EPOCH>521</REV_AT_EPOCH><BSTAR>-.11801E-1</BSTAR><MEAN_MOTION_DOT>-.390585E-2</MEAN_MOTION_DOT><MEAN_MOTION_DDOT>0</MEAN_MOTION_DDOT></tleParameters></data></segment></body></omm>
<omm id="CCSDS_OMM_VERS" version="2.0">
<header><CREATION_DATE/><ORIGINATOR/></header><body><segment><metadata><OBJECT_NAME>KUIPER-00110</OBJECT_NAME><OBJECT_ID>2025-171S</OBJECT_ID><CENTER_NAME>EARTH</CENTER_NAME><REF_FRAME>TEME</REF_FRAME><TIME_SYSTEM>UTC</TIME_SYSTEM><MEAN_ELEMENT_THEORY>SGP4</MEAN_ELEMENT_THEORY></metadata><data><meanElements><EPOCH>2025-10-22T04:00:00.999072</EPOCH><MEAN_MOTION>15.04958819</MEAN_MOTION><ECCENTRICITY>.0009902</ECCENTRICITY><INCLINATION>51.9018</INCLINATION><RA_OF_ASC_NODE>62.4180</RA_OF_ASC_NODE><ARG_OF_PERICENTER>6.6943</ARG_OF_PERICENTER><MEAN_ANOMALY>92.8116</MEAN_ANOMALY></meanElements><tleParameters><EPHEMERIS_TYPE>0</EPHEMERIS_TYPE><CLASSIFICATION_TYPE>U</CLASSIFICATION_TYPE><NORAD_CAT_ID>65148</NORAD_CAT_ID><ELEMENT_SET_NO>999</ELEMENT_SET_NO><REV_AT_EPOCH>541</REV_AT_EPOCH><BSTAR>-.7022E-1</BSTAR><MEAN_MOTION_DOT>-.931536E-2</MEAN_MOTION_DOT><MEAN_MOTION_DDOT>0</MEAN_MOTION_DDOT></tleParameters></data></segment></body></omm>
<omm id="CCSDS_OMM_VERS" version="2.0">
<header><CREATION_DATE/><ORIGINATOR/></header><body><segment><metadata><OBJECT_NAME>KUIPER-00111</OBJECT_NAME><OBJECT_ID>2025-171T</OBJECT_ID><CENTER_NAME>EARTH</CENTER_NAME><REF_FRAME>TEME</REF_FRAME><TIME_SYSTEM>UTC</TIME_SYSTEM><MEAN_ELEMENT_THEORY>SGP4</MEAN_ELEMENT_THEORY></metadata><data><meanElements><EPOCH>2025-10-22T04:00:00.999072</EPOCH><MEAN_MOTION>14.87614265</MEAN_MOTION><ECCENTRICITY>.0009402</ECCENTRICITY><INCLINATION>51.8973</INCLINATION><RA_OF_ASC_NODE>65.8070</RA_OF_ASC_NODE><ARG_OF_PERICENTER>27.3646</ARG_OF_PERICENTER><MEAN_ANOMALY>285.9621</MEAN_ANOMALY></meanElements><tleParameters><EPHEMERIS_TYPE>0</EPHEMERIS_TYPE><CLASSIFICATION_TYPE>U</CLASSIFICATION_TYPE><NORAD_CAT_ID>65149</NORAD_CAT_ID><ELEMENT_SET_NO>999</ELEMENT_SET_NO><REV_AT_EPOCH>577</REV_AT_EPOCH><BSTAR>-.16762E-2</BSTAR><MEAN_MOTION_DOT>-.15608E-3</MEAN_MOTION_DOT><MEAN_MOTION_DDOT>0</MEAN_MOTION_DDOT></tleParameters></data></segment></body></omm>

</ndm>
